{
  "type": "FeatureCollection",
  "features": [
    {
      "type": "Feature",
      "properties": {
        "norad_id": 33612,
        "name": "FENGYUN 1C DEB",
        "group": "fengyun-1c-debris",
        "lat": -7.55359485627596,
        "lon": -51.21936481568922,
        "alt_km": 945.8191903816441,
        "timestamp": "2025-12-03T22:42:32.920770+00:00",
        "meta_object_name": "FENGYUN 1C DEB",
        "meta_object_id": "1999-025DCV",
        "meta_epoch": "2025-12-02T09:07:04.428768",
        "meta_mean_motion": 14.03995627,
        "meta_eccentricity": 0.0111082,
        "meta_inclination": 98.599,
        "meta_ra_of_asc_node": 306.1484,
        "meta_arg_of_pericenter": 137.5735,
        "meta_mean_anomaly": 223.4087,
        "meta_ephemeris_type": 0,
        "meta_classification_type": "U",
        "meta_norad_cat_id": 33612,
        "meta_element_set_no": 999,
        "meta_rev_at_epoch": 56528,
        "meta_bstar": 0.0015686766,
        "meta_mean_motion_dot": 2.58e-05,
        "meta_mean_motion_ddot": 0,
        "tle_line1": "1 33612U 99025DCV 25336.37991237  .00002580  00000+0  15687-2 0  9993",
        "tle_line2": "2 33612  98.5990 306.1484 0111082 137.5735 223.4087 14.03995627565285"
      },
      "geometry": {
        "type": "Point",
        "coordinates": [
          -51.21936481568922,
          -7.55359485627596
        ]
      }
    },
    {
      "type": "Feature",
      "properties": {
        "norad_id": 33613,
        "name": "FENGYUN 1C DEB",
        "group": "fengyun-1c-debris",
        "lat": -61.7981265021043,
        "lon": 66.20729541304195,
        "alt_km": 811.2187096265643,
        "timestamp": "2025-12-03T22:42:32.920779+00:00",
        "meta_object_name": "FENGYUN 1C DEB",
        "meta_object_id": "1999-025DCW",
        "meta_epoch": "2025-11-24T11:05:45.286080",
        "meta_mean_motion": 14.32910608,
        "meta_eccentricity": 0.0031489,
        "meta_inclination": 98.6979,
        "meta_ra_of_asc_node": 40.1002,
        "meta_arg_of_pericenter": 140.9568,
        "meta_mean_anomaly": 219.3897,
        "meta_ephemeris_type": 0,
        "meta_classification_type": "U",
        "meta_norad_cat_id": 33613,
        "meta_element_set_no": 999,
        "meta_rev_at_epoch": 64248,
        "meta_bstar": 0.0024346,
        "meta_mean_motion_dot": 6.649e-05,
        "meta_mean_motion_ddot": 0,
        "tle_line1": "1 33613U 99025DCW 25328.46232970  .00006649  00000+0  24346-2 0  9999",
        "tle_line2": "2 33613  98.6979  40.1002 0031489 140.9568 219.3897 14.32910608642488"
      },
      "geometry": {
        "type": "Point",
        "coordinates": [
          66.20729541304195,
          -61.7981265021043
        ]
      }
    },
    {
      "type": "Feature",
      "properties": {
        "norad_id": 33618,
        "name": "FENGYUN 1C DEB",
        "group": "fengyun-1c-debris",
        "lat": -9.75262307212929,
        "lon": 66.47491391484199,
        "alt_km": 807.6527048968655,
        "timestamp": "2025-12-03T22:42:32.920788+00:00",
        "meta_object_name": "FENGYUN 1C DEB",
        "meta_object_id": "1999-025DDB",
        "meta_epoch": "2025-12-03T01:24:04.470048",
        "meta_mean_motion": 14.61937995,
        "meta_eccentricity": 0.01652628,
        "meta_inclination": 98.532,
        "meta_ra_of_asc_node": 64.0798,
        "meta_arg_of_pericenter": 170.3361,
        "meta_mean_anomaly": 190.1085,
        "meta_ephemeris_type": 0,
        "meta_classification_type": "U",
        "meta_norad_cat_id": 33618,
        "meta_element_set_no": 999,
        "meta_rev_at_epoch": 96642,
        "meta_bstar": 0.0016626595,
        "meta_mean_motion_dot": 0.00010077,
        "meta_mean_motion_ddot": 0,
        "tle_line1": "1 33618U 99025DDB 25337.05838507  .00010077  00000+0  16627-2 0  9990",
        "tle_line2": "2 33618  98.5320  64.0798 0165262 170.3361 190.1085 14.61937995966422"
      },
      "geometry": {
        "type": "Point",
        "coordinates": [
          66.47491391484199,
          -9.75262307212929
        ]
      }
    },
    {
      "type": "Feature",
      "properties": {
        "norad_id": 33619,
        "name": "FENGYUN 1C DEB",
        "group": "fengyun-1c-debris",
        "lat": -17.862273226616693,
        "lon": -135.51323912685817,
        "alt_km": 861.0348331726254,
        "timestamp": "2025-12-03T22:42:32.920797+00:00",
        "meta_object_name": "FENGYUN 1C DEB",
        "meta_object_id": "1999-025DDC",
        "meta_epoch": "2025-11-30T03:59:31.835616",
        "meta_mean_motion": 14.17406202,
        "meta_eccentricity": 0.00518202,
        "meta_inclination": 98.8627,
        "meta_ra_of_asc_node": 43.6004,
        "meta_arg_of_pericenter": 82.3406,
        "meta_mean_anomaly": 278.3649,
        "meta_ephemeris_type": 0,
        "meta_classification_type": "U",
        "meta_norad_cat_id": 33619,
        "meta_element_set_no": 999,
        "meta_rev_at_epoch": 63446,
        "meta_bstar": 0.0015187763,
        "meta_mean_motion_dot": 3.073e-05,
        "meta_mean_motion_ddot": 0,
        "tle_line1": "1 33619U 99025DDC 25334.16634069  .00003073  00000+0  15188-2 0  9996",
        "tle_line2": "2 33619  98.8627  43.6004 0051820  82.3406 278.3649 14.17406202634469"
      },
      "geometry": {
        "type": "Point",
        "coordinates": [
          -135.51323912685817,
          -17.862273226616693
        ]
      }
    },
    {
      "type": "Feature",
      "properties": {
        "norad_id": 33621,
        "name": "FENGYUN 1C DEB",
        "group": "fengyun-1c-debris",
        "lat": 45.287610112640756,
        "lon": -178.92000684113367,
        "alt_km": 801.9214319891407,
        "timestamp": "2025-12-03T22:42:32.920806+00:00",
        "meta_object_name": "FENGYUN 1C DEB",
        "meta_object_id": "1999-025DDE",
        "meta_epoch": "2025-11-24T20:15:43.256160",
        "meta_mean_motion": 14.19392117,
        "meta_eccentricity": 0.0285764,
        "meta_inclination": 98.141,
        "meta_ra_of_asc_node": 181.012,
        "meta_arg_of_pericenter": 346.9455,
        "meta_mean_anomaly": 12.4433,
        "meta_ephemeris_type": 0,
        "meta_classification_type": "U",
        "meta_norad_cat_id": 33621,
        "meta_element_set_no": 999,
        "meta_rev_at_epoch": 63990,
        "meta_bstar": 0.00068783,
        "meta_mean_motion_dot": 2.13e-05,
        "meta_mean_motion_ddot": 0,
        "tle_line1": "1 33621U 99025DDE 25328.84425065  .00002130  00000+0  68783-3 0  9994",
        "tle_line2": "2 33621  98.1410 181.0120 0285764 346.9455  12.4433 14.19392117639903"
      },
      "geometry": {
        "type": "Point",
        "coordinates": [
          -178.92000684113367,
          45.287610112640756
        ]
      }
    },
    {
      "type": "Feature",
      "properties": {
        "norad_id": 33625,
        "name": "FENGYUN 1C DEB",
        "group": "fengyun-1c-debris",
        "lat": 51.576066502662705,
        "lon": 77.20725131196689,
        "alt_km": 737.4530283448785,
        "timestamp": "2025-12-03T22:42:32.920815+00:00",
        "meta_object_name": "FENGYUN 1C DEB",
        "meta_object_id": "1999-025DDJ",
        "meta_epoch": "2025-12-01T01:24:31.444992",
        "meta_mean_motion": 14.60592393,
        "meta_eccentricity": 0.02269611,
        "meta_inclination": 98.6203,
        "meta_ra_of_asc_node": 85.2252,
        "meta_arg_of_pericenter": 171.2387,
        "meta_mean_anomaly": 189.288,
        "meta_ephemeris_type": 0,
        "meta_classification_type": "U",
        "meta_norad_cat_id": 33625,
        "meta_element_set_no": 999,
        "meta_rev_at_epoch": 61220,
        "meta_bstar": 0.0017865562,
        "meta_mean_motion_dot": 0.00012473,
        "meta_mean_motion_ddot": 0,
        "tle_line1": "1 33625U 99025DDJ 25335.05869728  .00012473  00000+0  17866-2 0  9993",
        "tle_line2": "2 33625  98.6203  85.2252 0226961 171.2387 189.2880 14.60592393612207"
      },
      "geometry": {
        "type": "Point",
        "coordinates": [
          77.20725131196689,
          51.576066502662705
        ]
      }
    },
    {
      "type": "Feature",
      "properties": {
        "norad_id": 33630,
        "name": "FENGYUN 1C DEB",
        "group": "fengyun-1c-debris",
        "lat": 45.55540448933319,
        "lon": -86.70794443181002,
        "alt_km": 754.2867478789885,
        "timestamp": "2025-12-03T22:42:32.920824+00:00",
        "meta_object_name": "FENGYUN 1C DEB",
        "meta_object_id": "1999-025DDP",
        "meta_epoch": "2025-12-02T00:21:31.303296",
        "meta_mean_motion": 14.17690711,
        "meta_eccentricity": 0.01353981,
        "meta_inclination": 98.6162,
        "meta_ra_of_asc_node": 82.5253,
        "meta_arg_of_pericenter": 98.8286,
        "meta_mean_anomaly": 262.8248,
        "meta_ephemeris_type": 0,
        "meta_classification_type": "U",
        "meta_norad_cat_id": 33630,
        "meta_element_set_no": 999,
        "meta_rev_at_epoch": 64259,
        "meta_bstar": 0.00047449858,
        "meta_mean_motion_dot": 1.016e-05,
        "meta_mean_motion_ddot": 0,
        "tle_line1": "1 33630U 99025DDP 25336.01494564  .00001016  00000+0  47450-3 0  9992",
        "tle_line2": "2 33630  98.6162  82.5253 0135398  98.8286 262.8248 14.17690711642599"
      },
      "geometry": {
        "type": "Point",
        "coordinates": [
          -86.70794443181002,
          45.55540448933319
        ]
      }
    }
  ]
}